NORAD_CAT_ID,OBJECT_NAME,OBJECT_TYPE,EPOCH,MEAN_MOTION,ECCENTRICITY,INCLINATION,RA_OF_ASC_NODE,ARG_OF_PERICENTER,MEAN_ANOMALY,BSTAR,MEAN_MOTION_DOT,MEAN_MOTION_DDOT,TLE_LINE0,TLE_LINE1,TLE_LINE2,SEMIMAJOR_AXIS,PERIOD,APOGEE,PERIGEE,DECAYED
53701.0,STARLINK-4711,PAYLOAD,2023-03-03 11:32:57,15.08846339,0.0001528,53.2201,151.71,105.725,254.391,0.00035351,5.344e-05,0.0,0 STARLINK-4711,1 53701U 22107B   23062.48121777  .00005344  00000-0  35351-3 0  9994,2 53701  53.2201 151.7100 0001528 105.7250 254.3910 15.08846339 28463,6917.861,95.437,540.783,538.669,0.0
53701.0,STARLINK-4711,PAYLOAD,2023-03-03 14:43:42,15.08857361,0.0001233,53.2189,151.1159,97.8889,262.2243,0.00043596,6.66e-05,0.0,0 STARLINK-4711,1 53701U 22107B   23062.61368801  .00006660  00000-0  43596-3 0  9992,2 53701  53.2189 151.1159 0001233  97.8889 262.2243 15.08857361 27731,6917.827,95.436,540.545,538.839,0.0
53701.0,STARLINK-4711,PAYLOAD,2023-03-04 08:12:59,15.08838366,0.0001663,53.2197,147.8464,113.0147,247.1021,1.4656e-05,-5.5e-07,0.0,0 STARLINK-4711,1 53701U 22107B   23063.34235258 -.00000055  00000-0  14656-4 0  9991,2 53701  53.2197 147.8464 0001663 113.0147 247.1021 15.08838366 27848,6917.885,95.438,540.901,538.6,0.0
53701.0,STARLINK-4711,PAYLOAD,2023-03-04 11:23:45,15.08845374,0.0001401,53.2185,147.2491,112.9329,247.1811,-3.559e-05,-8.54e-06,0.0,0 STARLINK-4711,1 53701U 22107B   23063.47482892 -.00000854  00000-0 -35590-4 0  9991,2 53701  53.2185 147.2491 0001401 112.9329 247.1811 15.08845374 28619,6917.864,95.437,540.698,538.76,0.0
53701.0,STARLINK-4711,PAYLOAD,2023-03-04 14:34:30,15.08859409,0.0001286,53.2183,146.6533,126.9916,233.1194,9.0595e-05,1.155e-05,0.0,0 STARLINK-4711,1 53701U 22107B   23063.60729519  .00001155  00000-0  90595-4 0  9995,2 53701  53.2183 146.6533 0001286 126.9916 233.1194 15.08859409 27886,6917.821,95.436,540.576,538.796,0.0
53701.0,STARLINK-4711,PAYLOAD,2023-03-04 22:31:26,15.08847471,0.0001474,53.218,145.1678,77.8439,282.2718,-3.4928e-05,-8.44e-06,0.0,0 STARLINK-4711,1 53701U 22107B   23063.93850601 -.00000844  00000-0 -34928-4 0  9992,2 53701  53.2180 145.1678 0001474  77.8439 282.2718 15.08847471 27939,6917.858,95.437,540.742,538.703,0.0
53701.0,STARLINK-4711,PAYLOAD,2023-03-05 09:39:09,15.08841628,0.0001315,53.2185,143.0868,92.8941,267.2202,-0.00019726,-3.426e-05,0.0,0 STARLINK-4711,1 53701U 22107B   23064.40219413 -.00003426  00000-0 -19726-3 0  9992,2 53701  53.2185 143.0868 0001315  92.8941 267.2202 15.08841628 28009,6917.875,95.437,540.65,538.831,0.0
53701.0,STARLINK-4711,PAYLOAD,2023-03-06 11:05:18,15.0884932,0.0001524,53.2181,138.3316,89.9264,270.1903,0.0001659,2.354e-05,0.0,0 STARLINK-4711,1 53701U 22107B   23065.46201814  .00002354  00000-0  16590-3 0  9998,2 53701  53.2181 138.3316 0001524  89.9264 270.1903 15.08849320 28162,6917.852,95.437,540.771,538.663,0.0
53701.0,STARLINK-4711,PAYLOAD,2023-03-06 14:16:02,15.08873015,0.0001294,53.2178,137.7319,128.6064,231.5044,0.00022471,3.293e-05,0.0,0 STARLINK-4711,1 53701U 22107B   23065.59447880  .00003293  00000-0  22471-3 0  9995,2 53701  53.2178 137.7319 0001294 128.6064 231.5044 15.08873015 28184,6917.779,95.435,540.54,538.749,0.0
53701.0,STARLINK-4711,PAYLOAD,2023-03-07 09:20:43,15.08835152,0.0002087,53.2184,134.1661,126.6572,233.4612,0.00014776,2.064e-05,0.0,0 STARLINK-4711,1 53701U 22107B   23066.38938868  .00002064  00000-0  14776-3 0  9998,2 53701  53.2184 134.1661 0002087 126.6572 233.4612 15.08835152 28301,6917.895,95.438,541.204,538.316,0.0
53701.0,STARLINK-4711,PAYLOAD,2023-03-07 14:06:51,15.0885124,0.0001176,53.2193,133.2803,106.6254,253.4867,0.00012376,1.683e-05,0.0,0 STARLINK-4711,1 53701U 22107B   23066.58810136  .00001683  00000-0  12376-3 0  9997,2 53701  53.2193 133.2803 0001176 106.6254 253.4867 15.08851240 28335,6917.846,95.437,540.525,538.897,0.0
53701.0,STARLINK-4711,PAYLOAD,2023-03-08 13:57:37,15.08866247,0.000116,53.2171,128.8111,130.3871,229.7222,1.7892e-05,-3e-08,0.0,0 STARLINK-4711,1 53701U 22107B   23067.58168782 -.00000003  00000-0  17892-4 0  9996,2 53701  53.2171 128.8111 0001160 130.3871 229.7222 15.08866247 29239,6917.8,95.436,540.468,538.863,0.0
53701.0,STARLINK-4711,PAYLOAD,2023-03-09 10:37:39,15.08854709,0.0001097,53.2172,124.9479,126.548,233.5613,0.00021291,3.104e-05,0.0,0 STARLINK-4711,1 53701U 22107B   23068.44282092  .00003104  00000-0  21291-3 0  9994,2 53701  53.2172 124.9479 0001097 126.5480 233.5613 15.08854709 28614,6917.835,95.437,540.459,538.942,0.0
53701.0,STARLINK-4711,PAYLOAD,2023-03-09 20:09:58,15.08853255,9.16e-05,53.2169,123.164,104.0204,256.089,0.00016994,2.419e-05,0.0,0 STARLINK-4711,1 53701U 22107B   23068.84026017  .00002419  00000-0  16994-3 0  9993,2 53701  53.2169 123.1640 0000916 104.0204 256.0890 15.08853255 29427,6917.84,95.437,540.339,539.071,0.0
53701.0,STARLINK-4711,PAYLOAD,2023-03-10 04:06:54,15.08838867,9.26e-05,53.2172,121.6762,110.2651,249.8441,-0.00018742,-3.269e-05,0.0,0 STARLINK-4711,1 53701U 22107B   23069.17146527 -.00003269  00000-0 -18742-3 0  9998,2 53701  53.2172 121.6762 0000926 110.2651 249.8441 15.08838867 28721,6917.884,95.438,540.389,539.108,0.0
53701.0,STARLINK-4711,PAYLOAD,2023-03-10 12:03:49,15.0885874,9.2e-05,53.2183,120.1897,109.9806,250.1285,6.5594e-05,7.57e-06,0.0,0 STARLINK-4711,1 53701U 22107B   23069.50265395  .00000757  00000-0  65594-4 0  9995,2 53701  53.2183 120.1897 0000920 109.9806 250.1285 15.08858740 28775,6917.823,95.436,540.325,539.052,0.0
53701.0,STARLINK-4711,PAYLOAD,2023-03-10 20:00:46,15.08833891,0.0001548,53.2195,118.7049,78.9098,281.2068,-8.7548e-05,-1.681e-05,0.0,0 STARLINK-4711,1 53701U 22107B   23069.83387662 -.00001681  00000-0 -87548-4 0  9995,2 53701  53.2195 118.7049 0001548  78.9098 281.2068 15.08833891 29578,6917.899,95.438,540.835,538.693,0.0
53701.0,STARLINK-4711,PAYLOAD,2023-03-11 05:33:06,15.08832346,0.0001424,53.2178,116.9203,118.9687,241.1448,-0.00013271,-2.399e-05,0.0,0 STARLINK-4711,1 53701U 22107B   23070.23132308 -.00002399  00000-0 -13271-3 0  9994,2 53701  53.2178 116.9203 0001424 118.9687 241.1448 15.08832346 28887,6917.904,95.438,540.754,538.784,0.0
53701.0,STARLINK-4711,PAYLOAD,2023-03-11 11:54:38,15.08838993,0.000145,53.2192,115.7315,127.801,232.3114,-5.9793e-05,-1.239e-05,0.0,0 STARLINK-4711,1 53701U 22107B   23070.49627756 -.00001239  00000-0 -59793-4 0  9990,2 53701  53.2192 115.7315 0001450 127.8010 232.3114 15.08838993 29676,6917.883,95.438,540.752,538.745,0.0
53701.0,STARLINK-4711,PAYLOAD,2023-03-11 15:05:24,15.08841021,0.0001219,53.2175,115.1349,108.3712,251.7413,5.014e-06,-2.08e-06,0.0,0 STARLINK-4711,1 53701U 22107B   23070.62875128 -.00000208  00000-0  50140-5 0  9995,2 53701  53.2175 115.1349 0001219 108.3712 251.7413 15.08841021 28946,6917.877,95.437,540.586,538.899,0.0
53701.0,STARLINK-4711,PAYLOAD,2023-03-12 10:10:02,15.08837665,0.0001292,53.2178,111.566,93.9067,266.2073,8.8882e-05,1.127e-05,0.0,0 STARLINK-4711,1 53701U 22107B   23071.42363840  .00001127  00000-0  88882-4 0  9990,2 53701  53.2178 111.5660 0001292  93.9067 266.2073 15.08837665 29064,6917.888,95.438,540.646,538.859,0.0
53701.0,STARLINK-4711,PAYLOAD,2023-03-13 11:36:12,15.08851602,0.0001311,53.2177,106.8089,101.8197,258.2942,0.00035632,5.389e-05,0.0,0 STARLINK-4711,1 53701U 22107B   23072.48347419  .00005389  00000-0  35632-3 0  9999,2 53701  53.2177 106.8089 0001311 101.8197 258.2942 15.08851602 29221,6917.845,95.437,540.617,538.803,0.0
53701.0,STARLINK-4711,PAYLOAD,2023-03-13 13:11:35,15.08853793,0.0001309,53.2176,106.5112,102.4457,257.6682,0.00037947,5.759e-05,0.0,0 STARLINK-4711,1 53701U 22107B   23072.54971294  .00005759  00000-0  37947-3 0  9992,2 53701  53.2176 106.5112 0001309 102.4457 257.6682 15.08853793 29987,6917.838,95.437,540.609,538.798,0.0
53701.0,STARLINK-4711,PAYLOAD,2023-03-14 01:54:40,15.08838304,0.0001341,53.2176,104.1314,99.1811,260.9333,3.4119e-05,2.55e-06,0.0,0 STARLINK-4711,1 53701U 22107B   23073.07963953  .00000255  00000-0  34119-4 0  9999,2 53701  53.2176 104.1314 0001341  99.1811 260.9333 15.08838304 29315,6917.886,95.438,540.678,538.823,0.0
53701.0,STARLINK-4711,PAYLOAD,2023-03-14 11:26:59,15.08849943,0.0001328,53.2173,102.3469,98.6732,261.441,0.00024235,3.572e-05,0.0,0 STARLINK-4711,1 53701U 22107B   23073.47707573  .00003572  00000-0  24235-3 0  9999,2 53701  53.2173 102.3469 0001328  98.6732 261.4410 15.08849943 30128,6917.85,95.437,540.634,538.796,0.0
53701.0,STARLINK-4711,PAYLOAD,2023-03-14 19:23:54,15.08851686,0.0001309,53.2174,100.8606,100.0317,260.0823,0.00032477,4.886e-05,0.0,0 STARLINK-4711,1 53701U 22107B   23073.80827462  .00004886  00000-0  32477-3 0  9992,2 53701  53.2174 100.8606 0001309 100.0317 260.0823 15.08851686 29422,6917.845,95.437,540.615,538.804,0.0
53701.0,STARLINK-4711,PAYLOAD,2023-03-15 11:17:45,15.08844145,0.0001515,53.2171,97.8877,85.9279,274.1886,0.00010827,1.436e-05,0.0,0 STARLINK-4711,1 53701U 22107B   23074.47067082  .00001436  00000-0  10827-3 0  9993,2 53701  53.2171  97.8877 0001515  85.9279 274.1886 15.08844145 29529,6917.868,95.437,540.781,538.685,0.0
53701.0,STARLINK-4711,PAYLOAD,2023-03-15 12:53:09,15.08846462,0.0001305,53.2172,97.5898,80.858,279.256,0.00020874,3.036e-05,0.0,0 STARLINK-4711,1 53701U 22107B   23074.53691037  .00003036  00000-0  20874-3 0  9994,2 53701  53.2172  97.5898 0001305  80.8580 279.2560 15.08846462 30280,6917.861,95.437,540.628,538.823,0.0
53701.0,STARLINK-4711,PAYLOAD,2023-03-16 12:43:56,15.08847003,0.0001562,53.2182,93.1287,80.0502,280.0667,0.00028238,4.21e-05,0.0,0 STARLINK-4711,1 53701U 22107B   23075.53051079  .00004210  00000-0  28238-3 0  9998,2 53701  53.2182  93.1287 0001562  80.0502 280.0667 15.08847003 30433,6917.859,95.437,540.805,538.643,0.0
53701.0,STARLINK-4711,PAYLOAD,2023-03-17 07:48:34,15.08837303,0.0001405,53.2172,89.5624,82.8527,277.2625,9.9212e-06,-1.3e-06,0.0,0 STARLINK-4711,1 53701U 22107B   23076.32539670 -.00000130  00000-0  99212-5 0  9994,2 53701  53.2172  89.5624 0001405  82.8527 277.2625 15.08837303 29802,6917.889,95.438,540.726,538.782,0.0
